     3.00           N                   E                   RINEX VERSION / TYPE
BRD_USR             ESA                 20190106 021909  UTCPGM / RUN BY / DATE
 GAL   5.0250E+01 -3.9062E-02 -1.6785E-03  0.0000E+00       IONOSPHERIC CORR
GAUT  0.0000000000E+00 0.000000000E+00 518400 2034 GSTB   0 TIME SYSTEM CORR
GPGA -2.6484485716E-09 2.664535259E-15      0 2035 GSTB   0 TIME SYSTEM CORR
                                                            END OF HEADER
E13 2019 01 06 00 40 00 3.813779912889E-04 4.689582056017E-13 0.000000000000E+00
     4.000000000000E+00-1.953750000000E+02 2.836903882719E-09-1.523928393117E+00
    -9.164214134216E-06 3.315493231639E-04 2.158805727959E-06 5.440601949692E+03
     2.400000000000E+03 2.048909664154E-08-8.659019630581E-01 2.048909664154E-08
     9.852141822624E-01 3.044062500000E+02-1.609303516877E+00-5.707380592453E-09
    -4.489472718845E-10 5.210000000000E+02 2.035000000000E+03 0.000000000000E+00
     3.120000000000E+00 4.550000000000E+02-4.656612873077E-09-5.820766091347E-09
     3.085000000000E+03 0.000000000000E+00 0.000000000000E+00 0.000000000000E+00
E15 2019 01 06 00 40 00 9.237480117008E-04-1.080024958355E-12 0.000000000000E+00
     4.000000000000E+00-1.980000000000E+02 2.858333346771E-09-6.649842600865E-01
    -9.104609489441E-06 3.811573842540E-04 2.607703208923E-06 5.440599643707E+03
     2.400000000000E+03 1.117587089539E-08-8.659142779025E-01 3.725290298462E-08
     9.851720502217E-01 2.955625000000E+02-1.686039537377E+00-5.699880280035E-09
    -4.332323315798E-10 5.210000000000E+02 2.035000000000E+03 0.000000000000E+00
     3.120000000000E+00 4.550000000000E+02 1.629814505577E-09 1.396983861923E-09
     3.085000000000E+03 0.000000000000E+00 0.000000000000E+00 0.000000000000E+00
E18 2019 01 06 00 40 00 5.627885169815E-03-2.859223968699E-11 0.000000000000E+00
     4.000000000000E+00-1.843437500000E+02 4.612334979408E-09-2.830230561915E+00
    -6.522983312607E-06 1.664240348618E-01-9.687617421150E-06 5.289408164978E+03
     2.400000000000E+03 2.961605787277E-06-1.443910340776E+00-7.450580596924E-09
     8.817536781571E-01 4.934687500000E+02 1.437467747570E+00-6.500627920103E-09
     2.642967233051E-11 5.210000000000E+02 2.035000000000E+03 0.000000000000E+00
     3.120000000000E+00 4.550000000000E+02 1.396983861923E-08 1.559965312481E-08
     3.085000000000E+03 0.000000000000E+00 0.000000000000E+00 0.000000000000E+00
E19 2019 01 06 00 40 00-9.346869774163E-06 2.984279490192E-13 0.000000000000E+00
     4.000000000000E+00 3.184375000000E+01 3.502645899261E-09-2.690949521169E+00
     1.613050699234E-06 1.399224856868E-04 4.956498742104E-06 5.440606237411E+03
     2.400000000000E+03-2.235174179077E-08 1.241284319606E+00-3.911554813385E-08
     9.579582424631E-01 2.305312500000E+02 2.247691624921E+00-5.658449982869E-09
     5.235932383315E-10 5.210000000000E+02 2.035000000000E+03 0.000000000000E+00
     3.120000000000E+00 0.000000000000E+00-8.847564458847E-09-9.080395102501E-09
     3.085000000000E+03 0.000000000000E+00 0.000000000000E+00 0.000000000000E+00
E21 2019 01 06 00 40 00-5.130019271746E-04-1.932676241267E-12 0.000000000000E+00
     4.000000000000E+00 1.564375000000E+02 2.354383783821E-09-1.417557217462E+00
     7.217749953270E-06 4.831328988075E-05 1.248531043530E-05 5.440638540268E+03
     2.400000000000E+03-7.450580596924E-09-2.948871588452E+00-1.117587089539E-08
     9.899173805009E-01 8.468750000000E+01-3.921717889692E-01-5.095212236041E-09
    -7.250302004181E-11 5.210000000000E+02 2.035000000000E+03 0.000000000000E+00
     3.120000000000E+00 0.000000000000E+00-2.561137080193E-09-3.259629011154E-09
     3.085000000000E+03 0.000000000000E+00 0.000000000000E+00 0.000000000000E+00
E24 2019 01 06 00 40 00 6.300916604232E-03-1.966782292584E-11 0.000000000000E+00
     4.000000000000E+00 1.502812500000E+02 2.387242295367E-09 1.651316888571E+00
     7.083639502525E-06 4.631699994206E-04 1.091882586479E-05 5.440629144669E+03
     2.400000000000E+03-5.401670932770E-08-2.942794394147E+00-8.381903171539E-08
     9.879202339975E-01 1.206250000000E+02 4.448691264248E-01-5.050924677001E-09
    -1.142904749427E-11 5.210000000000E+02 2.035000000000E+03 0.000000000000E+00
     3.120000000000E+00 0.000000000000E+00 4.284083843231E-08 4.773028194904E-08
     3.085000000000E+03 0.000000000000E+00 0.000000000000E+00 0.000000000000E+00
E30 2019 01 06 00 40 00 5.211617564783E-03-3.053912678297E-11 0.000000000000E+00
     4.000000000000E+00 1.816562500000E+02 2.448673425648E-09-7.567264173327E-01
     8.437782526016E-06 2.948367036879E-04 1.152232289314E-05 5.440626974106E+03
     2.400000000000E+03-4.284083843231E-08-2.942849350128E+00-3.166496753693E-08
     9.879042340624E-01 1.086250000000E+02 4.991945556512E-01-5.143428530158E-09
    -4.143029716675E-11 5.210000000000E+02 2.035000000000E+03 0.000000000000E+00
     3.120000000000E+00 0.000000000000E+00-3.026798367500E-09-3.725290298462E-09
     3.085000000000E+03 0.000000000000E+00 0.000000000000E+00 0.000000000000E+00
E01 2019 01 06 00 40 00-5.146263283677E-04-8.114398042380E-12 0.000000000000E+00
     4.000000000000E+00 1.442500000000E+02 2.442958901901E-09-1.769927114832E+00
     6.673857569695E-06 1.154337078333E-04 1.189857721329E-05 5.440624547958E+03
     2.400000000000E+03-7.450580596924E-09-2.946265533020E+00 1.862645149231E-09
     9.903534953983E-01 1.008125000000E+02-8.415317930170E-01-5.086283292686E-09
    -5.428797559780E-11 2.580000000000E+02 2.035000000000E+03 0.000000000000E+00
     3.120000000000E+00 0.000000000000E+00-4.423782229424E-09 0.000000000000E+00
     3.100000000000E+03 0.000000000000E+00 0.000000000000E+00 0.000000000000E+00
E02 2019 01 06 00 40 00 4.213373176754E-05 1.520561454527E-12 0.000000000000E+00
     4.000000000000E+00 1.793437500000E+02 2.364027042644E-09 8.070524640603E-01
     8.275732398033E-06 2.670325338840E-04 1.124106347561E-05 5.440629714966E+03
     2.400000000000E+03 5.587935447693E-09-2.946298308236E+00-5.587935447693E-09
     9.903615312073E-01 1.154687500000E+02-2.786317134664E-01-5.071996983319E-09
    -6.214544575012E-11 2.580000000000E+02 2.035000000000E+03 0.000000000000E+00
     3.120000000000E+00 0.000000000000E+00-6.053596735001E-09 0.000000000000E+00
     3.100000000000E+03 0.000000000000E+00 0.000000000000E+00 0.000000000000E+00
E03 2019 01 06 00 40 00-1.189513714053E-04-4.291678123991E-12 0.000000000000E+00
     4.000000000000E+00 2.856250000000E+01 3.659080986839E-09 1.971570548056E+00
     1.396983861923E-06 2.761186333373E-04 4.654750227928E-06 5.440603204727E+03
     2.400000000000E+03 2.421438694000E-08 1.244573000410E+00 2.421438694000E-08
     9.521865273966E-01 2.351250000000E+02 6.470306828079E-01-5.742739208139E-09
     4.414469594664E-10 2.580000000000E+02 2.035000000000E+03 0.000000000000E+00
     3.120000000000E+00 0.000000000000E+00-1.629814505577E-09 0.000000000000E+00
     3.100000000000E+03 0.000000000000E+00 0.000000000000E+00 0.000000000000E+00
E05 2019 01 06 00 40 00 1.300154253840E-04-6.565414878423E-12 0.000000000000E+00
     4.000000000000E+00 2.821875000000E+01 3.639794469192E-09 1.839446867660E+00
     1.352280378342E-06 1.489626010880E-04 4.550442099571E-06 5.440603244781E+03
     2.400000000000E+03 5.587935447693E-09 1.244556671318E+00 2.421438694000E-08
     9.521997960635E-01 2.391250000000E+02 1.566622937505E+00-5.747025100949E-09
     4.414469594664E-10 2.580000000000E+02 2.035000000000E+03 0.000000000000E+00
     3.120000000000E+00 0.000000000000E+00-1.396983861923E-09 0.000000000000E+00
     3.100000000000E+03 0.000000000000E+00 0.000000000000E+00 0.000000000000E+00
E07 2019 01 06 00 40 00-1.072068698704E-04-7.133849067031E-12 0.000000000000E+00
     4.000000000000E+00 2.412500000000E+01 3.604435853507E-09 9.560872521631E-01
     1.147389411926E-06 1.452160067856E-04 4.954636096954E-06 5.440605352402E+03
     2.400000000000E+03-1.303851604462E-08 1.244573720165E+00-1.303851604462E-08
     9.522307689651E-01 2.296250000000E+02 9.209358235307E-02-5.664521664350E-09
     4.628764235181E-10 2.580000000000E+02 2.035000000000E+03 0.000000000000E+00
     3.120000000000E+00 0.000000000000E+00 2.328306436539E-10 0.000000000000E+00
     3.100000000000E+03 0.000000000000E+00 0.000000000000E+00 0.000000000000E+00
E09 2019 01 06 00 40 00 6.566834636033E-03-1.134026206273E-11 0.000000000000E+00
     4.000000000000E+00 3.309375000000E+01 3.550862193377E-09-2.236350355437E+00
     1.555308699608E-06 2.477525267750E-04 4.753470420837E-06 5.440606569290E+03
     2.400000000000E+03-1.490116119385E-08 1.235928678922E+00 9.313225746155E-09
     9.582023727692E-01 2.378437500000E+02 1.429352916115E-01-5.696665860428E-09
     4.396611707954E-10 2.580000000000E+02 2.035000000000E+03 0.000000000000E+00
     3.120000000000E+00 0.000000000000E+00-3.259629011154E-09 0.000000000000E+00
     3.100000000000E+03 0.000000000000E+00 0.000000000000E+00 0.000000000000E+00
E11 2019 01 06 00 40 00 5.719106935430E-03 1.151079231931E-12 0.000000000000E+00
     4.000000000000E+00-1.806875000000E+02 2.812617156794E-09 3.533965103717E-01
    -8.530914783478E-06 2.394367475063E-04 2.779066562653E-06 5.440608583450E+03
     2.400000000000E+03-2.048909664154E-08-8.606015299767E-01 3.725290298462E-09
     9.819736358521E-01 2.875937500000E+02-3.514079424199E-01-5.635234730146E-09
    -4.264463346301E-10 2.580000000000E+02 2.035000000000E+03 0.000000000000E+00
     3.120000000000E+00 0.000000000000E+00-1.816079020500E-08 0.000000000000E+00
     3.100000000000E+03 0.000000000000E+00 0.000000000000E+00 0.000000000000E+00
